NORAD_CAT_ID,OBJECT_NAME,OBJECT_TYPE,EPOCH,MEAN_MOTION,ECCENTRICITY,INCLINATION,RA_OF_ASC_NODE,ARG_OF_PERICENTER,MEAN_ANOMALY,BSTAR,MEAN_MOTION_DOT,MEAN_MOTION_DDOT,TLE_LINE0,TLE_LINE1,TLE_LINE2,SEMIMAJOR_AXIS,PERIOD,APOGEE,PERIGEE,DECAYED
55668.0,STARLINK-5455,PAYLOAD,2023-10-08 03:00:41,14.98329374,0.000264,70.0009,232.294,261.7522,98.3338,-2.2857e-05,-3.66e-06,0.0,0 STARLINK-5455,1 55668U 23021AS  23281.12547677 -.00000366  00000-0 -22857-4 0  9998,2 55668  70.0009 232.2940 0002640 261.7522  98.3338 14.98329374 36639,6950.195,96.107,573.895,570.225,0.0
55668.0,STARLINK-5455,PAYLOAD,2023-10-08 06:12:57,14.98330857,0.000259,70.0011,231.9575,262.7779,97.3086,-1.2735e-05,-2.45e-06,0.0,0 STARLINK-5455,1 55668U 23021AS  23281.25899575 -.00000245  00000-0 -12735-4 0  9999,2 55668  70.0011 231.9575 0002590 262.7779  97.3086 14.98330857 36953,6950.19,96.107,573.855,570.255,0.0
55668.0,STARLINK-5455,PAYLOAD,2023-10-08 20:38:09,14.98331741,0.0002855,70.0005,230.442,269.1775,90.9057,1.8735e-05,1.31e-06,0.0,0 STARLINK-5455,1 55668U 23021AS  23281.85983397  .00000131  00000-0  18735-4 0  9999,2 55668  70.0005 230.4420 0002855 269.1775  90.9057 14.98331741 37041,6950.188,96.107,574.037,570.068,0.0
55668.0,STARLINK-5455,PAYLOAD,2023-10-09 03:02:41,14.98335531,0.0002814,70.0004,229.7665,264.0274,96.0565,8.2868e-05,8.96e-06,0.0,0 STARLINK-5455,1 55668U 23021AS  23282.12686887  .00000896  00000-0  82868-4 0  9990,2 55668  70.0004 229.7665 0002814 264.0274  96.0565 14.98335531 36787,6950.176,96.107,573.997,570.085,0.0
55668.0,STARLINK-5455,PAYLOAD,2023-10-09 06:14:57,14.98337738,0.0002785,70.0006,229.4305,264.6575,95.4266,0.00010203,1.125e-05,0.0,0 STARLINK-5455,1 55668U 23021AS  23282.26038652  .00001125  00000-0  10203-3 0  9995,2 55668  70.0006 229.4305 0002785 264.6575  95.4266 14.98337738 37103,6950.169,96.107,573.97,570.098,0.0
55668.0,STARLINK-5455,PAYLOAD,2023-10-09 14:15:38,14.98329564,0.0002615,70.0021,228.5874,271.2469,88.839,3.9072e-06,-4.6e-07,0.0,0 STARLINK-5455,1 55668U 23021AS  23282.59419422 -.00000046  00000-0  39072-5 0  9998,2 55668  70.0021 228.5874 0002615 271.2469  88.8390 14.98329564 36852,6950.194,96.107,573.877,570.242,0.0
55668.0,STARLINK-5455,PAYLOAD,2023-10-09 22:16:18,14.98326414,0.0002584,70.0017,227.7485,274.865,85.2214,1.4933e-05,8.5e-07,0.0,0 STARLINK-5455,1 55668U 23021AS  23282.92799641  .00000085  00000-0  14933-4 0  9999,2 55668  70.0017 227.7485 0002584 274.8650  85.2214 14.98326414 37209,6950.204,96.107,573.865,570.273,0.0
55668.0,STARLINK-5455,PAYLOAD,2023-10-10 06:16:58,14.98329746,0.0002643,70.0013,226.9065,273.4661,86.6196,3.6295e-05,3.4e-06,0.0,0 STARLINK-5455,1 55668U 23021AS  23283.26179392  .00000340  00000-0  36295-4 0  9991,2 55668  70.0013 226.9065 0002643 273.4661  86.6196 14.98329746 37253,6950.194,96.107,573.896,570.222,0.0
55668.0,STARLINK-5455,PAYLOAD,2023-10-10 14:17:39,14.98323832,0.0002239,70.0025,226.0663,267.8655,92.2247,-6.5774e-06,-1.71e-06,0.0,0 STARLINK-5455,1 55668U 23021AS  23283.59559948 -.00000171  00000-0 -65774-5 0  9995,2 55668  70.0025 226.0663 0002239 267.8655  92.2247 14.98323832 37005,6950.212,96.107,573.633,570.521,0.0
55668.0,STARLINK-5455,PAYLOAD,2023-10-10 22:18:20,14.98322244,0.0002833,70.0026,225.224,272.3806,87.7029,-5.2881e-05,-7.24e-06,0.0,0 STARLINK-5455,1 55668U 23021AS  23283.92940114 -.00000724  00000-0 -52881-4 0  9999,2 55668  70.0026 225.2240 0002833 272.3806  87.7029 14.98322244 37358,6950.217,96.107,574.051,570.113,0.0
55668.0,STARLINK-5455,PAYLOAD,2023-10-11 03:06:43,14.98331574,0.00031,70.0003,224.7183,269.1604,90.92,-2.7575e-05,-4.22e-06,0.0,0 STARLINK-5455,1 55668U 23021AS  23284.12967484 -.00000422  00000-0 -27575-4 0  9998,2 55668  70.0003 224.7183 0003100 269.1604  90.9200 14.98331574 37084,6950.188,96.107,574.208,569.898,0.0
55668.0,STARLINK-5455,PAYLOAD,2023-10-11 06:19:00,14.98331005,0.000301,70.0007,224.383,266.4397,93.6418,-3.7857e-05,-5.45e-06,0.0,0 STARLINK-5455,1 55668U 23021AS  23284.26319540 -.00000545  00000-0 -37857-4 0  9997,2 55668  70.0007 224.3830 0003010 266.4397  93.6418 14.98331005 37408,6950.19,96.107,574.147,569.963,0.0
55668.0,STARLINK-5455,PAYLOAD,2023-10-12 04:44:52,14.98331555,0.0002586,70.0018,222.0282,261.1136,98.973,9.7182e-05,1.067e-05,0.0,0 STARLINK-5455,1 55668U 23021AS  23285.19783298  .00001067  00000-0  97182-4 0  9990,2 55668  70.0018 222.0282 0002586 261.1136  98.9730 14.98331555 37243,6950.188,96.107,573.85,570.256,0.0
55668.0,STARLINK-5455,PAYLOAD,2023-10-12 12:45:33,14.983299,0.0002176,70.0032,221.1834,279.8653,80.226,1.9931e-05,1.45e-06,0.0,0 STARLINK-5455,1 55668U 23021AS  23285.53163674  .00000145  00000-0  19931-4 0  9990,2 55668  70.0032 221.1834 0002176 279.8653  80.2260 14.98329900 37598,6950.193,96.107,573.571,570.546,0.0
55668.0,STARLINK-5455,PAYLOAD,2023-10-12 22:22:21,14.98329513,0.00026,70.0014,220.1747,272.2696,87.8165,1.776e-05,1.19e-06,0.0,0 STARLINK-5455,1 55668U 23021AS  23285.93219679  .00000119  00000-0  17760-4 0  9990,2 55668  70.0014 220.1747 0002600 272.2696  87.8165 14.98329513 37650,6950.194,96.107,573.866,570.252,0.0
55668.0,STARLINK-5455,PAYLOAD,2023-10-13 04:46:53,14.98330486,0.000253,70.0018,219.5016,263.6914,96.3957,0.00010784,1.194e-05,0.0,0 STARLINK-5455,1 55668U 23021AS  23286.19923328  .00001194  00000-0  10784-3 0  9994,2 55668  70.0018 219.5016 0002530 263.6914  96.3957 14.98330486 37390,6950.191,96.107,573.815,570.298,0.0
55668.0,STARLINK-5455,PAYLOAD,2023-10-13 12:47:33,14.98351372,0.0002783,70.0014,218.659,269.4948,90.5892,-0.00023618,-2.911e-05,0.0,0 STARLINK-5455,1 55668U 23021AS  23286.53302645 -.00002911  00000-0 -23618-3 0  9995,2 55668  70.0014 218.6590 0002783 269.4948  90.5892 14.98351372 37441,6950.127,96.106,573.926,570.058,0.0
55668.0,STARLINK-5455,PAYLOAD,2023-10-13 20:48:14,14.98335106,0.0002648,70.0012,217.8175,266.0684,94.0172,2.0946e-05,1.57e-06,0.0,0 STARLINK-5455,1 55668U 23021AS  23286.86683091  .00000157  00000-0  20946-4 0  9998,2 55668  70.0012 217.8175 0002648 266.0684  94.0172 14.98335106 37491,6950.177,96.107,573.883,570.202,0.0
55668.0,STARLINK-5455,PAYLOAD,2023-10-14 04:48:53,14.98345063,0.0002717,70.0014,216.9772,251.3416,108.7449,7.7027e-05,8.27e-06,0.0,0 STARLINK-5455,1 55668U 23021AS  23287.20062051  .00000827  00000-0  77027-4 0  9990,2 55668  70.0014 216.9772 0002717 251.3416 108.7449 14.98345063 37542,6950.146,96.106,573.9,570.123,0.0
55668.0,STARLINK-5455,PAYLOAD,2023-10-14 06:25:01,14.98343087,0.0002531,70.002,216.8085,253.3468,106.7413,6.8574e-05,7.26e-06,0.0,0 STARLINK-5455,1 55668U 23021AS  23287.26738146  .00000726  00000-0  68574-4 0  9996,2 55668  70.0020 216.8085 0002531 253.3468 106.7413 14.98343087 37855,6950.152,96.106,573.777,570.258,0.0
55668.0,STARLINK-5455,PAYLOAD,2023-10-14 20:50:16,14.98314683,0.0002768,70.002,215.2948,269.9383,90.1459,-0.00019812,-2.455e-05,0.0,0 STARLINK-5455,1 55668U 23021AS  23287.86824850 -.00002455  00000-0 -19812-3 0  9993,2 55668  70.0020 215.2948 0002768 269.9383  90.1459 14.98314683 37640,6950.24,96.108,574.029,570.181,0.0
55668.0,STARLINK-5455,PAYLOAD,2023-10-14 22:26:24,14.98313633,0.0002822,70.0016,215.1264,270.0368,90.0468,-0.00019898,-2.465e-05,0.0,0 STARLINK-5455,1 55668U 23021AS  23287.93500961 -.00002465  00000-0 -19898-3 0  9990,2 55668  70.0016 215.1264 0002822 270.0368  90.0468 14.98313633 37959,6950.244,96.108,574.07,570.147,0.0
55668.0,STARLINK-5455,PAYLOAD,2023-10-15 04:50:57,14.98314386,0.0002765,70.0016,214.4518,269.3031,90.7811,-0.00020531,-2.541e-05,0.0,0 STARLINK-5455,1 55668U 23021AS  23288.20205169 -.00002541  00000-0 -20531-3 0  9994,2 55668  70.0016 214.4518 0002765 269.3031  90.7811 14.98314386 37996,6950.241,96.108,574.028,570.184,0.0
55668.0,STARLINK-5455,PAYLOAD,2023-10-15 20:52:16,14.98324685,0.0003318,70.0,212.7662,274.5867,85.4913,3.8295e-06,-4.7e-07,0.0,0 STARLINK-5455,1 55668U 23021AS  23288.86964063 -.00000047  00000-0  38295-5 0  9997,2 55668  70.0000 212.7662 0003318 274.5867  85.4913 14.98324685 37795,6950.209,96.107,574.38,569.768,0.0
55668.0,STARLINK-5455,PAYLOAD,2023-10-16 04:52:56,14.98342825,0.0002963,70.0008,211.9272,264.4234,95.6587,2.2105e-05,1.71e-06,0.0,0 STARLINK-5455,1 55668U 23021AS  23289.20342927  .00000171  00000-0  22105-4 0  9994,2 55668  70.0008 211.9272 0002963 264.4234  95.6587 14.98342825 37844,6950.153,96.106,574.078,569.959,0.0
55668.0,STARLINK-5455,PAYLOAD,2023-10-18 01:44:42,14.98335957,0.0003053,70.0006,207.2162,266.8169,93.264,-4.3613e-05,-6.13e-06,0.0,0 STARLINK-5455,1 55668U 23021AS  23291.07271367 -.00000613  00000-0 -43613-4 0  9991,2 55668  70.0006 207.2162 0003053 266.8169  93.2640 14.98335957 38429,6950.174,96.107,574.161,569.918,0.0
55668.0,STARLINK-5455,PAYLOAD,2023-10-18 11:21:29,14.98386001,0.0002798,70.0026,206.2039,284.2307,75.8541,-0.00097347,-0.00011706,0.0,0 STARLINK-5455,1 55668U 23021AS  23291.47326306 -.00011706  00000-0 -97347-3 0  9996,2 55668  70.0026 206.2039 0002798 284.2307  75.8541 14.98386001 38181,6950.02,96.103,573.829,569.94,0.0
55668.0,STARLINK-5455,PAYLOAD,2023-10-19 03:22:51,14.98331636,0.0002747,70.0024,204.521,275.9021,84.1825,3.624e-05,3.4e-06,0.0,0 STARLINK-5455,1 55668U 23021AS  23292.14087040  .00000340  00000-0  36240-4 0  9996,2 55668  70.0024 204.5210 0002747 275.9021  84.1825 14.98331636 38288,6950.188,96.107,573.962,570.144,0.0
55668.0,STARLINK-5455,PAYLOAD,2023-10-19 22:36:27,14.9833061,0.0002524,70.0019,202.5015,263.5545,96.5327,8.4104e-06,7e-08,0.0,0 STARLINK-5455,1 55668U 23021AS  23292.94198978  .00000007  00000-0  84104-5 0  9990,2 55668  70.0019 202.5015 0002524 263.5545  96.5327 14.98330610 38702,6950.191,96.107,573.81,570.302,0.0
55668.0,STARLINK-5455,PAYLOAD,2023-10-20 03:24:51,14.9833514,0.0002542,70.0014,201.9955,259.3276,100.7597,2.9644e-05,2.61e-06,0.0,0 STARLINK-5455,1 55668U 23021AS  23293.14226582  .00000261  00000-0  29644-4 0  9995,2 55668  70.0014 201.9955 0002542 259.3276 100.7597 14.98335140 38437,6950.177,96.107,573.809,570.275,0.0
